{
  "type": "FeatureCollection",
  "features": [
    {
      "type": "Feature",
      "properties": {
        "norad_id": 35891,
        "name": "COSMOS 2251 DEB",
        "group": "cosmos-2251-debris",
        "lat": -49.85093239720086,
        "lon": -98.75950043879865,
        "alt_km": 448.2737082016565,
        "timestamp": "2025-12-27T21:25:02.913778+00:00",
        "meta_object_name": "COSMOS 2251 DEB",
        "meta_object_id": "1993-036AUE",
        "meta_epoch": "2025-12-24T11:02:21.554880",
        "meta_mean_motion": 15.34278656,
        "meta_eccentricity": 0.00414162,
        "meta_inclination": 73.9889,
        "meta_ra_of_asc_node": 68.7111,
        "meta_arg_of_pericenter": 197.0192,
        "meta_mean_anomaly": 162.9627,
        "meta_ephemeris_type": 0,
        "meta_classification_type": "U",
        "meta_norad_cat_id": 35891,
        "meta_element_set_no": 999,
        "meta_rev_at_epoch": 67400,
        "meta_bstar": 0.0013301522,
        "meta_mean_motion_dot": 0.00045622,
        "meta_mean_motion_ddot": 0,
        "tle_line1": "1 35891U 93036AUE 25358.45997170  .00045622  00000+0  13302-2 0  9991",
        "tle_line2": "2 35891  73.9889  68.7111 0041416 197.0192 162.9627 15.34278656674008"
      },
      "geometry": {
        "type": "Point",
        "coordinates": [
          -98.75950043879865,
          -49.85093239720086
        ]
      }
    },
    {
      "type": "Feature",
      "properties": {
        "norad_id": 35895,
        "name": "COSMOS 2251 DEB",
        "group": "cosmos-2251-debris",
        "lat": 4.24015626054918,
        "lon": 140.16292238922384,
        "alt_km": 959.6282735718878,
        "timestamp": "2025-12-27T21:25:02.913788+00:00",
        "meta_object_name": "COSMOS 2251 DEB",
        "meta_object_id": "1993-036AUJ",
        "meta_epoch": "2025-12-22T15:33:07.695936",
        "meta_mean_motion": 14.01570651,
        "meta_eccentricity": 0.01984376,
        "meta_inclination": 74.0474,
        "meta_ra_of_asc_node": 330.4733,
        "meta_arg_of_pericenter": 66.0465,
        "meta_mean_anomaly": 296.1309,
        "meta_ephemeris_type": 0,
        "meta_classification_type": "U",
        "meta_norad_cat_id": 35895,
        "meta_element_set_no": 999,
        "meta_rev_at_epoch": 59151,
        "meta_bstar": 0.0014393062,
        "meta_mean_motion_dot": 2.565e-05,
        "meta_mean_motion_ddot": 0,
        "tle_line1": "1 35895U 93036AUJ 25356.64800574  .00002565  00000+0  14393-2 0  9995",
        "tle_line2": "2 35895  74.0474 330.4733 0198437  66.0465 296.1309 14.01570651591511"
      },
      "geometry": {
        "type": "Point",
        "coordinates": [
          140.16292238922384,
          4.24015626054918
        ]
      }
    },
    {
      "type": "Feature",
      "properties": {
        "norad_id": 35898,
        "name": "COSMOS 2251 DEB",
        "group": "cosmos-2251-debris",
        "lat": 72.13010890511246,
        "lon": -30.24124841629127,
        "alt_km": 530.2811371874777,
        "timestamp": "2025-12-27T21:25:02.913799+00:00",
        "meta_object_name": "COSMOS 2251 DEB",
        "meta_object_id": "1993-036AUM",
        "meta_epoch": "2025-12-26T12:06:31.303008",
        "meta_mean_motion": 14.94935336,
        "meta_eccentricity": 0.0079357,
        "meta_inclination": 73.9908,
        "meta_ra_of_asc_node": 269.6248,
        "meta_arg_of_pericenter": 49.2962,
        "meta_mean_anomaly": 126.094,
        "meta_ephemeris_type": 0,
        "meta_classification_type": "U",
        "meta_norad_cat_id": 35898,
        "meta_element_set_no": 999,
        "meta_rev_at_epoch": 67015,
        "meta_bstar": 0.00072114,
        "meta_mean_motion_dot": 8.353e-05,
        "meta_mean_motion_ddot": 0,
        "tle_line1": "1 35898U 93036AUM 25360.50452897  .00008353  00000+0  72114-3 0  9996",
        "tle_line2": "2 35898  73.9908 269.6248 0079357  49.2962 126.0940 14.94935336670159"
      },
      "geometry": {
        "type": "Point",
        "coordinates": [
          -30.24124841629127,
          72.13010890511246
        ]
      }
    },
    {
      "type": "Feature",
      "properties": {
        "norad_id": 35901,
        "name": "COSMOS 2251 DEB",
        "group": "cosmos-2251-debris",
        "lat": 62.271973508362706,
        "lon": 24.718053903165924,
        "alt_km": 536.2085772567398,
        "timestamp": "2025-12-27T21:25:02.913809+00:00",
        "meta_object_name": "COSMOS 2251 DEB",
        "meta_object_id": "1993-036AUQ",
        "meta_epoch": "2025-12-21T07:33:55.014048",
        "meta_mean_motion": 15.07789315,
        "meta_eccentricity": 0.0007598,
        "meta_inclination": 74.0113,
        "meta_ra_of_asc_node": 5.2093,
        "meta_arg_of_pericenter": 337.8636,
        "meta_mean_anomaly": 36.6976,
        "meta_ephemeris_type": 0,
        "meta_classification_type": "U",
        "meta_norad_cat_id": 35901,
        "meta_element_set_no": 999,
        "meta_rev_at_epoch": 86256,
        "meta_bstar": 0.0027352,
        "meta_mean_motion_dot": 0.00042089,
        "meta_mean_motion_ddot": 0,
        "tle_line1": "1 35901U 93036AUQ 25355.31522007  .00042089  00000+0  27352-2 0  9992",
        "tle_line2": "2 35901  74.0113   5.2093 0007598 337.8636  36.6976 15.07789315862560"
      },
      "geometry": {
        "type": "Point",
        "coordinates": [
          24.718053903165924,
          62.271973508362706
        ]
      }
    },
    {
      "type": "Feature",
      "properties": {
        "norad_id": 35902,
        "name": "COSMOS 2251 DEB",
        "group": "cosmos-2251-debris",
        "lat": -73.95889568010108,
        "lon": 119.44548504589689,
        "alt_km": 759.3226283872373,
        "timestamp": "2025-12-27T21:25:02.913819+00:00",
        "meta_object_name": "COSMOS 2251 DEB",
        "meta_object_id": "1993-036AUR",
        "meta_epoch": "2025-12-22T20:41:03.846048",
        "meta_mean_motion": 14.26951694,
        "meta_eccentricity": 0.0102351,
        "meta_inclination": 73.9816,
        "meta_ra_of_asc_node": 216.2092,
        "meta_arg_of_pericenter": 329.0141,
        "meta_mean_anomaly": 30.4992,
        "meta_ephemeris_type": 0,
        "meta_classification_type": "U",
        "meta_norad_cat_id": 35902,
        "meta_element_set_no": 999,
        "meta_rev_at_epoch": 61274,
        "meta_bstar": 0.0010058,
        "meta_mean_motion_dot": 2.559e-05,
        "meta_mean_motion_ddot": 0,
        "tle_line1": "1 35902U 93036AUR 25356.86185007  .00002559  00000+0  10058-2 0  9992",
        "tle_line2": "2 35902  73.9816 216.2092 0102351 329.0141  30.4992 14.26951694612743"
      },
      "geometry": {
        "type": "Point",
        "coordinates": [
          119.44548504589689,
          -73.95889568010108
        ]
      }
    },
    {
      "type": "Feature",
      "properties": {
        "norad_id": 35905,
        "name": "COSMOS 2251 DEB",
        "group": "cosmos-2251-debris",
        "lat": -16.322790762676068,
        "lon": 4.857466743100951,
        "alt_km": 541.7010946190185,
        "timestamp": "2025-12-27T21:25:02.913830+00:00",
        "meta_object_name": "COSMOS 2251 DEB",
        "meta_object_id": "1993-036AUU",
        "meta_epoch": "2025-12-26T06:05:49.536384",
        "meta_mean_motion": 14.99199654,
        "meta_eccentricity": 0.0090469,
        "meta_inclination": 74.0306,
        "meta_ra_of_asc_node": 183.3726,
        "meta_arg_of_pericenter": 260.3473,
        "meta_mean_anomaly": 98.7485,
        "meta_ephemeris_type": 0,
        "meta_classification_type": "U",
        "meta_norad_cat_id": 35905,
        "meta_element_set_no": 999,
        "meta_rev_at_epoch": 88785,
        "meta_bstar": 0.00060081,
        "meta_mean_motion_dot": 7.938e-05,
        "meta_mean_motion_ddot": 0,
        "tle_line1": "1 35905U 93036AUU 25360.25404556  .00007938  00000+0  60081-3 0  9994",
        "tle_line2": "2 35905  74.0306 183.3726 0090469 260.3473  98.7485 14.99199654887851"
      },
      "geometry": {
        "type": "Point",
        "coordinates": [
          4.857466743100951,
          -16.322790762676068
        ]
      }
    },
    {
      "type": "Feature",
      "properties": {
        "norad_id": 35959,
        "name": "COSMOS 2251 DEB",
        "group": "cosmos-2251-debris",
        "lat": 27.298240642127034,
        "lon": -67.1754784641261,
        "alt_km": 762.4709386838931,
        "timestamp": "2025-12-27T21:25:02.913840+00:00",
        "meta_object_name": "COSMOS 2251 DEB",
        "meta_object_id": "1993-036AUZ",
        "meta_epoch": "2025-12-24T06:13:49.219680",
        "meta_mean_motion": 14.34143688,
        "meta_eccentricity": 0.00220445,
        "meta_inclination": 74.0332,
        "meta_ra_of_asc_node": 290.9748,
        "meta_arg_of_pericenter": 8.3325,
        "meta_mean_anomaly": 351.8188,
        "meta_ephemeris_type": 0,
        "meta_classification_type": "U",
        "meta_norad_cat_id": 35959,
        "meta_element_set_no": 999,
        "meta_rev_at_epoch": 85093,
        "meta_bstar": 0.00012200296,
        "meta_mean_motion_dot": 3.16e-06,
        "meta_mean_motion_ddot": 0,
        "tle_line1": "1 35959U 93036AUZ 25358.25959745  .00000316  00000+0  12200-3 0  9998",
        "tle_line2": "2 35959  74.0332 290.9748 0022044   8.3325 351.8188 14.34143688850935"
      },
      "geometry": {
        "type": "Point",
        "coordinates": [
          -67.1754784641261,
          27.298240642127034
        ]
      }
    }
  ]
}